{
  "norad_id": 48998,
  "name": "ONEWEB-0280",
  "history": [
    {
      "epoch": "2026-03-28T21:12:58.952160Z",
      "apogee_km": 1199.2047087505398,
      "perigee_km": 1196.2985978631305,
      "latitude_deg": 3.541276149407333e-05,
      "longitude_deg": 100.19420578531481,
      "height_km": 1200.633331651079,
      "semi_major_axis_km": 7575.888653306834,
      "eccentricity": 0.0001918,
      "inclination_deg": 87.9032,
      "raan_deg": 244.7379,
      "arg_perigee_deg": 89.5263,
      "mean_anomaly_deg": 270.6088,
      "mean_motion_rev_day": 13.16595564
    }
  ]
}