{"fetched_at":"2026-03-30T09:12:31Z","count":15922,"tles":[{"name":"ONEWEB-0280","line1":"1 48998U 21060AH  26087.88401565  .00000081  00000+0  17818-3 0  9993","line2":"2 48998  87.9032 244.7379 0001918  89.5263 270.6088 13.16595564228993","category":"Other"}]}